IRIDIUM 144             
1 43249U 18030A   25192.62068757  .00000051  00000+0  11313-4 0  9992
2 43249  86.3942  72.7873 0002071  85.0095 275.1337 14.34217744381329
IRIDIUM 149             
1 43250U 18030B   25192.41772443  .00000082  00000+0  22210-4 0  9997
2 43250  86.3940  72.8430 0002048  84.9138 275.2292 14.34217906381319
IRIDIUM 157             
1 43251U 18030C   25192.36698403 -.00000003  00000+0 -80717-5 0  9997
2 43251  86.3942  72.9097 0002203  89.3478 270.7971 14.34217560381287
IRIDIUM 140             
1 43252U 18030D   25192.52554898  .00000147  00000+0  45444-4 0  9999
2 43252  86.3943  72.8573 0002078  82.2167 277.9264 14.34217208381366
IRIDIUM 145             
1 43253U 18030E   25192.37332543  .00000016  00000+0 -13125-5 0  9992
2 43253  86.3942  72.8934 0001635  83.6080 276.5302 14.34217627381277
IRIDIUM 146             
1 43254U 18030F   25192.63337253  .00000180  00000+0  57390-4 0  9997
2 43254  86.3942  72.7984 0001790  83.9068 276.2332 14.34217844381320
IRIDIUM 148             
1 43255U 18030G   25192.39236451  .00000184  00000+0  58639-4 0  9990
2 43255  86.3943  72.9370 0002069  89.9647 270.1786 14.34217651381335
IRIDIUM 142             
1 43256U 18030H   25192.63971387  .00000003  00000+0 -60782-5 0  9996
2 43256  86.3940  72.7345 0001524  86.1995 273.9375 14.34217607381328
